{
  "norad_id": 58882,
  "name": "STARLINK-31323",
  "history": [
    {
      "epoch": "2026-03-28T16:54:21.032640Z",
      "apogee_km": 475.89593038143175,
      "perigee_km": 474.59378782820204,
      "latitude_deg": 3.276175563889998e-05,
      "longitude_deg": 154.29845428128078,
      "height_km": 476.1421794442417,
      "semi_major_axis_km": 6853.381859104817,
      "eccentricity": 9.5e-05,
      "inclination_deg": 53.1612,
      "raan_deg": 234.0071,
      "arg_perigee_deg": 89.885,
      "mean_anomaly_deg": 270.226,
      "mean_motion_rev_day": 15.30190023
    },
    {
      "epoch": "2026-03-30T01:49:26.430240Z",
      "apogee_km": 475.9508015206702,
      "perigee_km": 474.46910790906077,
      "latitude_deg": -7.610588969861285e-06,
      "longitude_deg": 12.799933644194972,
      "height_km": 475.8555403777326,
      "semi_major_axis_km": 6853.346954714865,
      "eccentricity": 0.0001081,
      "inclination_deg": 53.1604,
      "raan_deg": 227.633,
      "arg_perigee_deg": 70.0413,
      "mean_anomaly_deg": 290.0704,
      "mean_motion_rev_day": 15.30201713
    },
    {
      "epoch": "2026-03-30T12:47:50.195904Z",
      "apogee_km": 475.6833194178462,
      "perigee_km": 474.8447372680175,
      "latitude_deg": 1.6293470576816305e-05,
      "longitude_deg": -154.37202773158123,
      "height_km": 476.15081192246106,
      "semi_major_axis_km": 6853.401028342932,
      "eccentricity": 6.118e-05,
      "inclination_deg": 53.1608,
      "raan_deg": 225.5107,
      "arg_perigee_deg": 88.3269,
      "mean_anomaly_deg": 271.7802,
      "mean_motion_rev_day": 15.30183603
    },
    {
      "epoch": "2026-03-30T19:04:03.058176Z",
      "apogee_km": 476.0263839369809,
      "perigee_km": 474.4724471011259,
      "latitude_deg": 5.579098318744077e-06,
      "longitude_deg": 110.10326220114047,
      "height_km": 475.9026150104925,
      "semi_major_axis_km": 6853.386415519053,
      "eccentricity": 0.00011337,
      "inclination_deg": 53.1603,
      "raan_deg": 224.2971,
      "arg_perigee_deg": 71.6061,
      "mean_anomaly_deg": 288.5063,
      "mean_motion_rev_day": 15.30188497
    },
    {
      "epoch": "2026-03-31T18:34:50.352960Z",
      "apogee_km": 475.8964164320787,
      "perigee_km": 474.54082269052924,
      "latitude_deg": 1.921163885113194e-05,
      "longitude_deg": 111.88926183954005,
      "height_km": 475.7781025037819,
      "semi_major_axis_km": 6853.355619561304,
      "eccentricity": 9.89e-05,
      "inclination_deg": 53.1621,
      "raan_deg": 219.7458,
      "arg_perigee_deg": 59.9533,
      "mean_anomaly_deg": 300.1566,
      "mean_motion_rev_day": 15.30198811
    },
    {
      "epoch": "2026-04-01T14:57:30.510720Z",
      "apogee_km": 475.7969238365622,
      "perigee_km": 474.6181485763336,
      "latitude_deg": 3.4700657798818904e-05,
      "longitude_deg": 161.4438630703009,
      "height_km": 475.83997310545465,
      "semi_major_axis_km": 6853.344536206448,
      "eccentricity": 8.6e-05,
      "inclination_deg": 53.1602,
      "raan_deg": 215.8046,
      "arg_perigee_deg": 63.1356,
      "mean_anomaly_deg": 296.9733,
      "mean_motion_rev_day": 15.30202523
    },
    {
      "epoch": "2026-04-02T17:36:26.285184Z",
      "apogee_km": 476.23355490363883,
      "perigee_km": 474.2616990787601,
      "latitude_deg": 3.066963242413857e-06,
      "longitude_deg": 115.45941847385973,
      "height_km": 475.91536382262575,
      "semi_major_axis_km": 6853.384626991199,
      "eccentricity": 0.00014386,
      "inclination_deg": 53.1612,
      "raan_deg": 210.647,
      "arg_perigee_deg": 76.4923,
      "mean_anomaly_deg": 283.6238,
      "mean_motion_rev_day": 15.30189096
    },
    {
      "epoch": "2026-04-03T13:59:09.682080Z",
      "apogee_km": 476.33971591702084,
      "perigee_km": 474.3028681126343,
      "latitude_deg": -1.2532669767154506e-05,
      "longitude_deg": 164.997662246324,
      "height_km": 476.3212485293721,
      "semi_major_axis_km": 6853.458292014828,
      "eccentricity": 0.0001486,
      "inclination_deg": 53.16,
      "raan_deg": 206.703,
      "arg_perigee_deg": 95.7585,
      "mean_anomaly_deg": 264.3585,
      "mean_motion_rev_day": 15.30164425
    },
    {
      "epoch": "2026-04-04T18:12:03.549888Z",
      "apogee_km": 476.1744921616182,
      "perigee_km": 474.1911414066399,
      "latitude_deg": -3.428278635154946e-05,
      "longitude_deg": 95.15364872291988,
      "height_km": 476.2407666363409,
      "semi_major_axis_km": 6853.319816784128,
      "eccentricity": 0.0001447,
      "inclination_deg": 53.1612,
      "raan_deg": 201.2422,
      "arg_perigee_deg": 99.2824,
      "mean_anomaly_deg": 260.834,
      "mean_motion_rev_day": 15.30210802
    },
    {
      "epoch": "2026-04-05T13:00:45.964224Z",
      "apogee_km": 476.370379537414,
      "perigee_km": 474.3543541636609,
      "latitude_deg": 1.368452140083727e-05,
      "longitude_deg": 168.56618443382098,
      "height_km": 476.51526084360074,
      "semi_major_axis_km": 6853.499366850537,
      "eccentricity": 0.00014708,
      "inclination_deg": 53.1604,
      "raan_deg": 197.604,
      "arg_perigee_deg": 104.6543,
      "mean_anomaly_deg": 255.4621,
      "mean_motion_rev_day": 15.30150669
    },
    {
      "epoch": "2026-04-05T16:08:52.169856Z",
      "apogee_km": 476.60472131895585,
      "perigee_km": 474.0881222064854,
      "latitude_deg": 2.5527949857593555e-05,
      "longitude_deg": 120.80138400391843,
      "height_km": 476.68730694499527,
      "semi_major_axis_km": 6853.48342176272,
      "eccentricity": 0.0001836,
      "inclination_deg": 53.1586,
      "raan_deg": 196.9938,
      "arg_perigee_deg": 110.6436,
      "mean_anomaly_deg": 249.4762,
      "mean_motion_rev_day": 15.30156009
    },
    {
      "epoch": "2026-04-06T06:15:18.353376Z",
      "apogee_km": 475.8098373438588,
      "perigee_km": 474.52909143179477,
      "latitude_deg": -3.054721292744263e-05,
      "longitude_deg": -94.1167221301704,
      "height_km": 476.25176073621,
      "semi_major_axis_km": 6853.306464387827,
      "eccentricity": 9.344e-05,
      "inclination_deg": 53.1617,
      "raan_deg": 194.2642,
      "arg_perigee_deg": 106.6542,
      "mean_anomaly_deg": 253.4561,
      "mean_motion_rev_day": 15.30215274
    }
  ]
}